[
  {
    "OBJECT_NAME": "DIWATA-2B",
    "OBJECT_ID": "2018-084H",
    "EPOCH": "2025-05-06T04:39:36.368352",
    "MEAN_MOTION": 14.98172747,
    "ECCENTRICITY": 0.0009131,
    "INCLINATION": 98.1023,
    "RA_OF_ASC_NODE": 301.015,
    "ARG_OF_PERICENTER": 44.538,
    "MEAN_ANOMALY": 315.6573,
    "EPHEMERIS_TYPE": 0,
    "CLASSIFICATION_TYPE": "U",
    "NORAD_CAT_ID": 43678,
    "ELEMENT_SET_NO": 999,
    "REV_AT_EPOCH": 35523,
    "BSTAR": 0.00022032,
    "MEAN_MOTION_DOT": 2.551e-05,
    "MEAN_MOTION_DDOT": 0
  },
  {
    "OBJECT_NAME": "ES'HAIL 2",
    "OBJECT_ID": "2018-090A",
    "EPOCH": "2025-05-05T21:12:13.425408",
    "MEAN_MOTION": 1.00270152,
    "ECCENTRICITY": 0.0001929,
    "INCLINATION": 0.0152,
    "RA_OF_ASC_NODE": 257.189,
    "ARG_OF_PERICENTER": 182.8269,
    "MEAN_ANOMALY": 127.8145,
    "EPHEMERIS_TYPE": 0,
    "CLASSIFICATION_TYPE": "U",
    "NORAD_CAT_ID": 43700,
    "ELEMENT_SET_NO": 999,
    "REV_AT_EPOCH": 2383,
    "BSTAR": 0,
    "MEAN_MOTION_DOT": 1.37e-06,
    "MEAN_MOTION_DDOT": 0
  },
  {
    "OBJECT_NAME": "FOX-1CLIFF (AO-95)",
    "OBJECT_ID": "2018-099N",
    "EPOCH": "2025-05-05T21:14:37.274496",
    "MEAN_MOTION": 15.16596841,
    "ECCENTRICITY": 0.0009663,
    "INCLINATION": 97.4947,
    "RA_OF_ASC_NODE": 184.3658,
    "ARG_OF_PERICENTER": 340.833,
    "MEAN_ANOMALY": 19.2538,
    "EPHEMERIS_TYPE": 0,
    "CLASSIFICATION_TYPE": "U",
    "NORAD_CAT_ID": 43770,
    "ELEMENT_SET_NO": 999,
    "REV_AT_EPOCH": 35129,
    "BSTAR": 0.00061465,
    "MEAN_MOTION_DOT": 0.00011963,
    "MEAN_MOTION_DDOT": 0
  },
  {
    "OBJECT_NAME": "ITASAT",
    "OBJECT_ID": "2018-099AE",
    "EPOCH": "2025-05-06T03:34:06.143808",
    "MEAN_MOTION": 15.12492686,
    "ECCENTRICITY": 0.0013207,
    "INCLINATION": 97.4598,
    "RA_OF_ASC_NODE": 181.2639,
    "ARG_OF_PERICENTER": 330.797,
    "MEAN_ANOMALY": 29.2521,
    "EPHEMERIS_TYPE": 0,
    "CLASSIFICATION_TYPE": "U",
    "NORAD_CAT_ID": 43786,
    "ELEMENT_SET_NO": 999,
    "REV_AT_EPOCH": 35125,
    "BSTAR": 0.00046963,
    "MEAN_MOTION_DOT": 8.13e-05,
    "MEAN_MOTION_DDOT": 0
  },
  {
    "OBJECT_NAME": "JY1SAT (JO-97)",
    "OBJECT_ID": "2018-099AX",
    "EPOCH": "2025-05-05T21:37:31.999584",
    "MEAN_MOTION": 15.20020597,
    "ECCENTRICITY": 0.0006055,
    "INCLINATION": 97.4691,
    "RA_OF_ASC_NODE": 185.3037,
    "ARG_OF_PERICENTER": 259.7011,
    "MEAN_ANOMALY": 100.3542,
    "EPHEMERIS_TYPE": 0,
    "CLASSIFICATION_TYPE": "U",
    "NORAD_CAT_ID": 43803,
    "ELEMENT_SET_NO": 999,
    "REV_AT_EPOCH": 35150,
    "BSTAR": 0.00070811,
    "MEAN_MOTION_DOT": 0.00015218,
    "MEAN_MOTION_DDOT": 0
  },
  {
    "OBJECT_NAME": "UWE-4",
    "OBJECT_ID": "2018-111E",
    "EPOCH": "2025-05-05T21:42:10.057248",
    "MEAN_MOTION": 15.24866355,
    "ECCENTRICITY": 0.0011336,
    "INCLINATION": 97.5918,
    "RA_OF_ASC_NODE": 38.2757,
    "ARG_OF_PERICENTER": 343.3872,
    "MEAN_ANOMALY": 16.6992,
    "EPHEMERIS_TYPE": 0,
    "CLASSIFICATION_TYPE": "U",
    "NORAD_CAT_ID": 43880,
    "ELEMENT_SET_NO": 999,
    "REV_AT_EPOCH": 34834,
    "BSTAR": 0.00082969,
    "MEAN_MOTION_DOT": 0.00020621,
    "MEAN_MOTION_DDOT": 0
  },
  {
    "OBJECT_NAME": "DUCHIFAT-3",
    "OBJECT_ID": "2019-089C",
    "EPOCH": "2025-05-06T05:56:11.512608",
    "MEAN_MOTION": 15.43721277,
    "ECCENTRICITY": 0.0001074,
    "INCLINATION": 36.9434,
    "RA_OF_ASC_NODE": 213.0187,
    "ARG_OF_PERICENTER": 343.0021,
    "MEAN_ANOMALY": 17.0699,
    "EPHEMERIS_TYPE": 0,
    "CLASSIFICATION_TYPE": "U",
    "NORAD_CAT_ID": 44854,
    "ELEMENT_SET_NO": 999,
    "REV_AT_EPOCH": 29763,
    "BSTAR": 0.0010862,
    "MEAN_MOTION_DOT": 0.00050636,
    "MEAN_MOTION_DDOT": 0
  },
  {
    "OBJECT_NAME": "TIANYAN 01",
    "OBJECT_ID": "2019-093C",
    "EPOCH": "2025-05-06T05:00:13.593024",
    "MEAN_MOTION": 14.85529159,
    "ECCENTRICITY": 0.0013424,
    "INCLINATION": 97.7929,
    "RA_OF_ASC_NODE": 202.5768,
    "ARG_OF_PERICENTER": 350.6385,
    "MEAN_ANOMALY": 9.4578,
    "EPHEMERIS_TYPE": 0,
    "CLASSIFICATION_TYPE": "U",
    "NORAD_CAT_ID": 44881,
    "ELEMENT_SET_NO": 999,
    "REV_AT_EPOCH": 29097,
    "BSTAR": 0.00017281,
    "MEAN_MOTION_DOT": 1.441e-05,
    "MEAN_MOTION_DDOT": 0
  },
  {
    "OBJECT_NAME": "RS-44 & BREEZE-KM R/B",
    "OBJECT_ID": "2019-096E",
    "EPOCH": "2025-05-06T01:50:40.093152",
    "MEAN_MOTION": 12.7974037,
    "ECCENTRICITY": 0.0217625,
    "INCLINATION": 82.521,
    "RA_OF_ASC_NODE": 250.1994,
    "ARG_OF_PERICENTER": 16.5538,
    "MEAN_ANOMALY": 344.2524,
    "EPHEMERIS_TYPE": 0,
    "CLASSIFICATION_TYPE": "U",
    "NORAD_CAT_ID": 44909,
    "ELEMENT_SET_NO": 999,
    "REV_AT_EPOCH": 25032,
    "BSTAR": 1.7713e-05,
    "MEAN_MOTION_DOT": 1.6e-07,
    "MEAN_MOTION_DDOT": 0
  },
  {
    "OBJECT_NAME": "SALSAT",
    "OBJECT_ID": "2020-068K",
    "EPOCH": "2025-05-05T20:21:44.379648",
    "MEAN_MOTION": 15.22241171,
    "ECCENTRICITY": 0.0009453,
    "INCLINATION": 97.8586,
    "RA_OF_ASC_NODE": 102.291,
    "ARG_OF_PERICENTER": 285.7887,
    "MEAN_ANOMALY": 74.2305,
    "EPHEMERIS_TYPE": 0,
    "CLASSIFICATION_TYPE": "U",
    "NORAD_CAT_ID": 46495,
    "ELEMENT_SET_NO": 999,
    "REV_AT_EPOCH": 25324,
    "BSTAR": 0.00040823,
    "MEAN_MOTION_DOT": 9.326e-05,
    "MEAN_MOTION_DDOT": 0
  },
  {
    "OBJECT_NAME": "LEDSAT",
    "OBJECT_ID": "2021-073D",
    "EPOCH": "2025-05-06T05:05:20.508288",
    "MEAN_MOTION": 15.56299003,
    "ECCENTRICITY": 0.0011903,
    "INCLINATION": 97.3904,
    "RA_OF_ASC_NODE": 206.4304,
    "ARG_OF_PERICENTER": 197.7793,
    "MEAN_ANOMALY": 162.3047,
    "EPHEMERIS_TYPE": 0,
    "CLASSIFICATION_TYPE": "U",
    "NORAD_CAT_ID": 49069,
    "ELEMENT_SET_NO": 999,
    "REV_AT_EPOCH": 20608,
    "BSTAR": 0.00097927,
    "MEAN_MOTION_DOT": 0.00069451,
    "MEAN_MOTION_DDOT": 0
  },
  {
    "OBJECT_NAME": "XW-3 (CAS-9)",
    "OBJECT_ID": "2021-131B",
    "EPOCH": "2025-05-06T05:54:18.084096",
    "MEAN_MOTION": 14.4077098,
    "ECCENTRICITY": 0.0003317,
    "INCLINATION": 98.5086,
    "RA_OF_ASC_NODE": 215.7709,
    "ARG_OF_PERICENTER": 225.4862,
    "MEAN_ANOMALY": 134.6055,
    "EPHEMERIS_TYPE": 0,
    "CLASSIFICATION_TYPE": "U",
    "NORAD_CAT_ID": 50466,
    "ELEMENT_SET_NO": 999,
    "REV_AT_EPOCH": 17650,
    "BSTAR": 0.00028267,
    "MEAN_MOTION_DOT": 8.6e-06,
    "MEAN_MOTION_DDOT": 0
  },
  {
    "OBJECT_NAME": "STRATOSAT-TK 1 (RS52S)",
    "OBJECT_ID": "2023-091B",
    "EPOCH": "2025-05-06T04:23:29.239584",
    "MEAN_MOTION": 15.37686742,
    "ECCENTRICITY": 0.000973,
    "INCLINATION": 97.5557,
    "RA_OF_ASC_NODE": 188.6176,
    "ARG_OF_PERICENTER": 82.7287,
    "MEAN_ANOMALY": 277.5063,
    "EPHEMERIS_TYPE": 0,
    "CLASSIFICATION_TYPE": "U",
    "NORAD_CAT_ID": 57167,
    "ELEMENT_SET_NO": 999,
    "REV_AT_EPOCH": 10272,
    "BSTAR": 0.0012055,
    "MEAN_MOTION_DOT": 0.00044797,
    "MEAN_MOTION_DDOT": 0
  },
  {
    "OBJECT_NAME": "UMKA 1 (RS40S)",
    "OBJECT_ID": "2023-091G",
    "EPOCH": "2025-05-06T04:46:58.951488",
    "MEAN_MOTION": 15.14950875,
    "ECCENTRICITY": 0.0016293,
    "INCLINATION": 97.5609,
    "RA_OF_ASC_NODE": 181.7655,
    "ARG_OF_PERICENTER": 94.4873,
    "MEAN_ANOMALY": 265.822,
    "EPHEMERIS_TYPE": 0,
    "CLASSIFICATION_TYPE": "U",
    "NORAD_CAT_ID": 57172,
    "ELEMENT_SET_NO": 999,
    "REV_AT_EPOCH": 10227,
    "BSTAR": 0.0004067,
    "MEAN_MOTION_DOT": 7.543e-05,
    "MEAN_MOTION_DDOT": 0
  }
]