DIWATA-2B               
1 43678U 18084H   25126.19417093  .00002551  00000+0  22032-3 0  9993
2 43678  98.1023 301.0150 0009131  44.5380 315.6573 14.98172747355239
ES'HAIL 2               
1 43700U 18090A   25125.88348872  .00000137  00000+0  00000+0 0  9994
2 43700   0.0152 257.1890 0001929 182.8269 127.8145  1.00270152 23835
FOX-1CLIFF (AO-95)      
1 43770U 18099N   25125.88515364  .00011963  00000+0  61465-3 0  9997
2 43770  97.4947 184.3658 0009663 340.8330  19.2538 15.16596841351297
ITASAT                  
1 43786U 18099AE  25126.14868222  .00008130  00000+0  46963-3 0  9996
2 43786  97.4598 181.2639 0013207 330.7970  29.2521 15.12492686351255
JY1SAT (JO-97)          
1 43803U 18099AX  25125.90106481  .00015218  00000+0  70811-3 0  9995
2 43803  97.4691 185.3037 0006055 259.7011 100.3542 15.20020597351504
UWE-4                   
1 43880U 18111E   25125.90428307  .00020621  00000+0  82969-3 0  9990
2 43880  97.5918  38.2757 0011336 343.3872  16.6992 15.24866355348340
DUCHIFAT-3              
1 44854U 19089C   25126.24735547  .00050636  00000+0  10862-2 0  9993
2 44854  36.9434 213.0187 0001074 343.0021  17.0699 15.43721277297631
TIANYAN 01              
1 44881U 19093C   25126.20849066  .00001441  00000+0  17281-3 0  9999
2 44881  97.7929 202.5768 0013424 350.6385   9.4578 14.85529159290973
RS-44 & BREEZE-KM R/B   
1 44909U 19096E   25126.07685293  .00000016  00000+0  17713-4 0  9996
2 44909  82.5210 250.1994 0217625  16.5538 344.2524 12.79740370250323
SALSAT                  
1 46495U 20068K   25125.84843032  .00009326  00000+0  40823-3 0  9990
2 46495  97.8586 102.2910 0009453 285.7887  74.2305 15.22241171253247
LEDSAT                  
1 49069U 21073D   25126.21204292  .00069451  00000+0  97927-3 0  9990
2 49069  97.3904 206.4304 0011903 197.7793 162.3047 15.56299003206087
XW-3 (CAS-9)            
1 50466U 21131B   25126.24604264  .00000860  00000+0  28267-3 0  9994
2 50466  98.5086 215.7709 0003317 225.4862 134.6055 14.40770980176506
STRATOSAT-TK 1 (RS52S)  
1 57167U 23091B   25126.18297731  .00044797  00000+0  12055-2 0  9990
2 57167  97.5557 188.6176 0009730  82.7287 277.5063 15.37686742102727
UMKA 1 (RS40S)          
1 57172U 23091G   25126.19929342  .00007543  00000+0  40670-3 0  9990
2 57172  97.5609 181.7655 0016293  94.4873 265.8220 15.14950875102271
